STARLINK-37119          
1 68210U 26053D   26085.16668981 -.01903636  00000+0 -86559-2 0  9993
2 68210  97.2800 320.1936 0001676 100.7986 112.6216 15.87074613  2665
STARLINK-37120          
1 68211U 26053E   26085.16668981 -.01906075  00000+0 -86035-2 0  9993
2 68211  97.2792 320.1949 0001790 105.4600 111.4561 15.87225767  2648
STARLINK-37117          
1 68212U 26053F   26085.16668981 -.01900201  00000+0 -85079-2 0  9996
2 68212  97.2799 320.1969 0001975 103.0085 117.3718 15.87373923  2663
STARLINK-37116          
1 68213U 26053G   26085.16668981 -.01899158  00000+0 -84272-2 0  9999
2 68213  97.2792 320.1977 0001686 107.3589 116.2267 15.87557025  2665
STARLINK-35854          
1 68214U 26053H   26085.16668981 -.01900788  00000+0 -83742-2 0  9993
2 68214  97.2789 320.1997 0001603 105.8251 121.2098 15.87705423  2421
STARLINK-36272          
1 68215U 26053J   26085.16668981 -.01896016  00000+0 -82758-2 0  9998
2 68215  97.2786 320.2008 0001733  97.5116 132.7166 15.87880321  2552
STARLINK-37014          
1 68216U 26053K   26085.16668981 -.01894878  00000+0 -82119-2 0  9994
2 68216  97.2786 320.2020 0001804 106.3931 127.2950 15.88020079  2669
STARLINK-37011          
1 68217U 26053L   26085.16668981 -.01891559  00000+0 -81241-2 0  9993
2 68217  97.2784 320.2034 0001780 113.0460 123.7937 15.88193496  2668
STARLINK-37108          
1 68218U 26053M   26085.16668981 -.01884180  00000+0 -80067-2 0  9991
2 68218  97.2785 320.2046 0001800 113.4310 126.2749 15.88391365  2668
STARLINK-37106          
1 68219U 26053N   26085.16668981 -.01873405  00000+0 -78869-2 0  9997
2 68219  97.2784 320.2053 0001743 110.5339 132.2898 15.88557653  2667
STARLINK-37030          
1 68220U 26053P   26085.16668981 -.01868708  00000+0 -77477-2 0  9993
2 68220  97.2777 320.2085 0001650 107.8215 141.5580 15.88853584  2668
STARLINK-37012          
1 68221U 26053Q   26085.16668981 -.01872410  00000+0 -78219-2 0  9994
2 68221  97.2776 320.2065 0001768 108.7419 137.3309 15.88709078  2662
