CCSDS_OMM_VERS = 2.0
CREATION_DATE  = 
ORIGINATOR     = 

OBJECT_NAME    = STARLINK-37119
OBJECT_ID      = 2026-053D
CENTER_NAME    = EARTH
REF_FRAME      = TEME
TIME_SYSTEM    = UTC
MEAN_ELEMENT_THEORY = SGP/SGP4

EPOCH          = 2026-03-26T04:00:01.999584
MEAN_MOTION    = 15.87074613
ECCENTRICITY   = .0001676
INCLINATION    = 97.2800
RA_OF_ASC_NODE = 320.1936
ARG_OF_PERICENTER = 100.7986
MEAN_ANOMALY   = 112.6216

EPHEMERIS_TYPE = 0
CLASSIFICATION_TYPE = U
NORAD_CAT_ID   = 68210
ELEMENT_SET_NO = 999
REV_AT_EPOCH   = 266
BSTAR          = -.86559E-2
MEAN_MOTION_DOT = -.1903636E-1
MEAN_MOTION_DDOT = 0

CCSDS_OMM_VERS = 2.0
CREATION_DATE  = 
ORIGINATOR     = 

OBJECT_NAME    = STARLINK-37120
OBJECT_ID      = 2026-053E
CENTER_NAME    = EARTH
REF_FRAME      = TEME
TIME_SYSTEM    = UTC
MEAN_ELEMENT_THEORY = SGP/SGP4

EPOCH          = 2026-03-26T04:00:01.999584
MEAN_MOTION    = 15.87225767
ECCENTRICITY   = .000179
INCLINATION    = 97.2792
RA_OF_ASC_NODE = 320.1949
ARG_OF_PERICENTER = 105.4600
MEAN_ANOMALY   = 111.4561

EPHEMERIS_TYPE = 0
CLASSIFICATION_TYPE = U
NORAD_CAT_ID   = 68211
ELEMENT_SET_NO = 999
REV_AT_EPOCH   = 264
BSTAR          = -.86035E-2
MEAN_MOTION_DOT = -.1906075E-1
MEAN_MOTION_DDOT = 0

CCSDS_OMM_VERS = 2.0
CREATION_DATE  = 
ORIGINATOR     = 

OBJECT_NAME    = STARLINK-37117
OBJECT_ID      = 2026-053F
CENTER_NAME    = EARTH
REF_FRAME      = TEME
TIME_SYSTEM    = UTC
MEAN_ELEMENT_THEORY = SGP/SGP4

EPOCH          = 2026-03-26T04:00:01.999584
MEAN_MOTION    = 15.87373923
ECCENTRICITY   = .0001975
INCLINATION    = 97.2799
RA_OF_ASC_NODE = 320.1969
ARG_OF_PERICENTER = 103.0085
MEAN_ANOMALY   = 117.3718

EPHEMERIS_TYPE = 0
CLASSIFICATION_TYPE = U
NORAD_CAT_ID   = 68212
ELEMENT_SET_NO = 999
REV_AT_EPOCH   = 266
BSTAR          = -.85079E-2
MEAN_MOTION_DOT = -.1900201E-1
MEAN_MOTION_DDOT = 0

CCSDS_OMM_VERS = 2.0
CREATION_DATE  = 
ORIGINATOR     = 

OBJECT_NAME    = STARLINK-37116
OBJECT_ID      = 2026-053G
CENTER_NAME    = EARTH
REF_FRAME      = TEME
TIME_SYSTEM    = UTC
MEAN_ELEMENT_THEORY = SGP/SGP4

EPOCH          = 2026-03-26T04:00:01.999584
MEAN_MOTION    = 15.87557025
ECCENTRICITY   = .0001686
INCLINATION    = 97.2792
RA_OF_ASC_NODE = 320.1977
ARG_OF_PERICENTER = 107.3589
MEAN_ANOMALY   = 116.2267

EPHEMERIS_TYPE = 0
CLASSIFICATION_TYPE = U
NORAD_CAT_ID   = 68213
ELEMENT_SET_NO = 999
REV_AT_EPOCH   = 266
BSTAR          = -.84272E-2
MEAN_MOTION_DOT = -.1899158E-1
MEAN_MOTION_DDOT = 0

CCSDS_OMM_VERS = 2.0
CREATION_DATE  = 
ORIGINATOR     = 

OBJECT_NAME    = STARLINK-35854
OBJECT_ID      = 2026-053H
CENTER_NAME    = EARTH
REF_FRAME      = TEME
TIME_SYSTEM    = UTC
MEAN_ELEMENT_THEORY = SGP/SGP4

EPOCH          = 2026-03-26T04:00:01.999584
MEAN_MOTION    = 15.87705423
ECCENTRICITY   = .0001603
INCLINATION    = 97.2789
RA_OF_ASC_NODE = 320.1997
ARG_OF_PERICENTER = 105.8251
MEAN_ANOMALY   = 121.2098

EPHEMERIS_TYPE = 0
CLASSIFICATION_TYPE = U
NORAD_CAT_ID   = 68214
ELEMENT_SET_NO = 999
REV_AT_EPOCH   = 242
BSTAR          = -.83742E-2
MEAN_MOTION_DOT = -.1900788E-1
MEAN_MOTION_DDOT = 0

CCSDS_OMM_VERS = 2.0
CREATION_DATE  = 
ORIGINATOR     = 

OBJECT_NAME    = STARLINK-36272
OBJECT_ID      = 2026-053J
CENTER_NAME    = EARTH
REF_FRAME      = TEME
TIME_SYSTEM    = UTC
MEAN_ELEMENT_THEORY = SGP/SGP4

EPOCH          = 2026-03-26T04:00:01.999584
MEAN_MOTION    = 15.87880321
ECCENTRICITY   = .0001733
INCLINATION    = 97.2786
RA_OF_ASC_NODE = 320.2008
ARG_OF_PERICENTER = 97.5116
MEAN_ANOMALY   = 132.7166

EPHEMERIS_TYPE = 0
CLASSIFICATION_TYPE = U
NORAD_CAT_ID   = 68215
ELEMENT_SET_NO = 999
REV_AT_EPOCH   = 255
BSTAR          = -.82758E-2
MEAN_MOTION_DOT = -.1896016E-1
MEAN_MOTION_DDOT = 0

CCSDS_OMM_VERS = 2.0
CREATION_DATE  = 
ORIGINATOR     = 

OBJECT_NAME    = STARLINK-37014
OBJECT_ID      = 2026-053K
CENTER_NAME    = EARTH
REF_FRAME      = TEME
TIME_SYSTEM    = UTC
MEAN_ELEMENT_THEORY = SGP/SGP4

EPOCH          = 2026-03-26T04:00:01.999584
MEAN_MOTION    = 15.88020079
ECCENTRICITY   = .0001804
INCLINATION    = 97.2786
RA_OF_ASC_NODE = 320.2020
ARG_OF_PERICENTER = 106.3931
MEAN_ANOMALY   = 127.2950

EPHEMERIS_TYPE = 0
CLASSIFICATION_TYPE = U
NORAD_CAT_ID   = 68216
ELEMENT_SET_NO = 999
REV_AT_EPOCH   = 266
BSTAR          = -.82119E-2
MEAN_MOTION_DOT = -.1894878E-1
MEAN_MOTION_DDOT = 0

CCSDS_OMM_VERS = 2.0
CREATION_DATE  = 
ORIGINATOR     = 

OBJECT_NAME    = STARLINK-37011
OBJECT_ID      = 2026-053L
CENTER_NAME    = EARTH
REF_FRAME      = TEME
TIME_SYSTEM    = UTC
MEAN_ELEMENT_THEORY = SGP/SGP4

EPOCH          = 2026-03-26T04:00:01.999584
MEAN_MOTION    = 15.88193496
ECCENTRICITY   = .000178
INCLINATION    = 97.2784
RA_OF_ASC_NODE = 320.2034
ARG_OF_PERICENTER = 113.0460
MEAN_ANOMALY   = 123.7937

EPHEMERIS_TYPE = 0
CLASSIFICATION_TYPE = U
NORAD_CAT_ID   = 68217
ELEMENT_SET_NO = 999
REV_AT_EPOCH   = 266
BSTAR          = -.81241E-2
MEAN_MOTION_DOT = -.1891559E-1
MEAN_MOTION_DDOT = 0

CCSDS_OMM_VERS = 2.0
CREATION_DATE  = 
ORIGINATOR     = 

OBJECT_NAME    = STARLINK-37108
OBJECT_ID      = 2026-053M
CENTER_NAME    = EARTH
REF_FRAME      = TEME
TIME_SYSTEM    = UTC
MEAN_ELEMENT_THEORY = SGP/SGP4

EPOCH          = 2026-03-26T04:00:01.999584
MEAN_MOTION    = 15.88391365
ECCENTRICITY   = .00018
INCLINATION    = 97.2785
RA_OF_ASC_NODE = 320.2046
ARG_OF_PERICENTER = 113.4310
MEAN_ANOMALY   = 126.2749

EPHEMERIS_TYPE = 0
CLASSIFICATION_TYPE = U
NORAD_CAT_ID   = 68218
ELEMENT_SET_NO = 999
REV_AT_EPOCH   = 266
BSTAR          = -.80067E-2
MEAN_MOTION_DOT = -.188418E-1
MEAN_MOTION_DDOT = 0

CCSDS_OMM_VERS = 2.0
CREATION_DATE  = 
ORIGINATOR     = 

OBJECT_NAME    = STARLINK-37106
OBJECT_ID      = 2026-053N
CENTER_NAME    = EARTH
REF_FRAME      = TEME
TIME_SYSTEM    = UTC
MEAN_ELEMENT_THEORY = SGP/SGP4

EPOCH          = 2026-03-26T04:00:01.999584
MEAN_MOTION    = 15.88557653
ECCENTRICITY   = .0001743
INCLINATION    = 97.2784
RA_OF_ASC_NODE = 320.2053
ARG_OF_PERICENTER = 110.5339
MEAN_ANOMALY   = 132.2898

EPHEMERIS_TYPE = 0
CLASSIFICATION_TYPE = U
NORAD_CAT_ID   = 68219
ELEMENT_SET_NO = 999
REV_AT_EPOCH   = 266
BSTAR          = -.78869E-2
MEAN_MOTION_DOT = -.1873405E-1
MEAN_MOTION_DDOT = 0

CCSDS_OMM_VERS = 2.0
CREATION_DATE  = 
ORIGINATOR     = 

OBJECT_NAME    = STARLINK-37030
OBJECT_ID      = 2026-053P
CENTER_NAME    = EARTH
REF_FRAME      = TEME
TIME_SYSTEM    = UTC
MEAN_ELEMENT_THEORY = SGP/SGP4

EPOCH          = 2026-03-26T04:00:01.999584
MEAN_MOTION    = 15.88853584
ECCENTRICITY   = .000165
INCLINATION    = 97.2777
RA_OF_ASC_NODE = 320.2085
ARG_OF_PERICENTER = 107.8215
MEAN_ANOMALY   = 141.5580

EPHEMERIS_TYPE = 0
CLASSIFICATION_TYPE = U
NORAD_CAT_ID   = 68220
ELEMENT_SET_NO = 999
REV_AT_EPOCH   = 266
BSTAR          = -.77477E-2
MEAN_MOTION_DOT = -.1868708E-1
MEAN_MOTION_DDOT = 0

CCSDS_OMM_VERS = 2.0
CREATION_DATE  = 
ORIGINATOR     = 

OBJECT_NAME    = STARLINK-37012
OBJECT_ID      = 2026-053Q
CENTER_NAME    = EARTH
REF_FRAME      = TEME
TIME_SYSTEM    = UTC
MEAN_ELEMENT_THEORY = SGP/SGP4

EPOCH          = 2026-03-26T04:00:01.999584
MEAN_MOTION    = 15.88709078
ECCENTRICITY   = .0001768
INCLINATION    = 97.2776
RA_OF_ASC_NODE = 320.2065
ARG_OF_PERICENTER = 108.7419
MEAN_ANOMALY   = 137.3309

EPHEMERIS_TYPE = 0
CLASSIFICATION_TYPE = U
NORAD_CAT_ID   = 68221
ELEMENT_SET_NO = 999
REV_AT_EPOCH   = 266
BSTAR          = -.78219E-2
MEAN_MOTION_DOT = -.187241E-1
MEAN_MOTION_DDOT = 0

